FLOCK 4G-14             
1 62667U 25009BL  26068.75869712  .00011310  00000+0  42676-3 0  9993
2 62667  97.4064 151.1836 0003006 318.3639  41.7371 15.27197201 63711
STARLINK-33999          
1 63857U 25093X   26068.36264135  .00026292  00000+0  96056-3 0  9999
2 63857  43.0059  79.5866 0003344 295.8135  64.2372 15.27611111 47922
